{
  "type": "FeatureCollection",
  "features": [
    {
      "type": "Feature",
      "properties": {
        "norad_id": 40118,
        "name": "GAOFEN-2",
        "group": "resource",
        "lat": 53.155531566869776,
        "lon": -117.57602614585558,
        "alt_km": 617.0377050112702,
        "timestamp": "2025-12-18T08:58:43.048753+00:00",
        "meta_object_name": "GAOFEN-2",
        "meta_object_id": "2014-049A",
        "meta_epoch": "2025-12-17T22:40:49.943136",
        "meta_mean_motion": 14.80619653,
        "meta_eccentricity": 0.00087188,
        "meta_inclination": 98.0385,
        "meta_ra_of_asc_node": 51.1229,
        "meta_arg_of_pericenter": 98.512,
        "meta_mean_anomaly": 261.708,
        "meta_ephemeris_type": 0,
        "meta_classification_type": "U",
        "meta_norad_cat_id": 40118,
        "meta_element_set_no": 999,
        "meta_rev_at_epoch": 61241,
        "meta_bstar": 0.00013091409,
        "meta_mean_motion_dot": 9.52e-06,
        "meta_mean_motion_ddot": 0,
        "tle_line1": "1 40118U 14049A   25351.94502249  .00000952  00000+0  13091-3 0  9995",
        "tle_line2": "2 40118  98.0385  51.1229 0008718  98.5120 261.7080 14.80619653612419"
      },
      "geometry": {
        "type": "Point",
        "coordinates": [
          -117.57602614585558,
          53.155531566869776
        ]
      }
    },
    {
      "type": "Feature",
      "properties": {
        "norad_id": 40143,
        "name": "YAOGAN-21",
        "group": "resource",
        "lat": -61.02274500433377,
        "lon": -157.7064086254173,
        "alt_km": 506.78514922644536,
        "timestamp": "2025-12-18T08:58:43.048763+00:00",
        "meta_object_name": "YAOGAN-21",
        "meta_object_id": "2014-053A",
        "meta_epoch": "2025-12-17T22:27:50.162400",
        "meta_mean_motion": 15.23729145,
        "meta_eccentricity": 0.00092713,
        "meta_inclination": 97.1752,
        "meta_ra_of_asc_node": 35.0234,
        "meta_arg_of_pericenter": 24.9165,
        "meta_mean_anomaly": 335.2519,
        "meta_ephemeris_type": 0,
        "meta_classification_type": "U",
        "meta_norad_cat_id": 40143,
        "meta_element_set_no": 999,
        "meta_rev_at_epoch": 62733,
        "meta_bstar": 0.00017984173,
        "meta_mean_motion_dot": 4.258e-05,
        "meta_mean_motion_ddot": 0,
        "tle_line1": "1 40143U 14053A   25351.93599725  .00004258  00000+0  17984-3 0  9990",
        "tle_line2": "2 40143  97.1752  35.0234 0009271  24.9165 335.2519 15.23729145627336"
      },
      "geometry": {
        "type": "Point",
        "coordinates": [
          -157.7064086254173,
          -61.02274500433377
        ]
      }
    },
    {
      "type": "Feature",
      "properties": {
        "norad_id": 40275,
        "name": "YAOGAN-22",
        "group": "resource",
        "lat": -1.3107785743736127,
        "lon": -44.37620692132457,
        "alt_km": 1202.0324058545048,
        "timestamp": "2025-12-18T08:58:43.048773+00:00",
        "meta_object_name": "YAOGAN-22",
        "meta_object_id": "2014-063A",
        "meta_epoch": "2025-12-17T10:09:25.054560",
        "meta_mean_motion": 13.15522862,
        "meta_eccentricity": 0.00059894,
        "meta_inclination": 100.7424,
        "meta_ra_of_asc_node": 134.9088,
        "meta_arg_of_pericenter": 236.7844,
        "meta_mean_anomaly": 123.2694,
        "meta_ephemeris_type": 0,
        "meta_classification_type": "U",
        "meta_norad_cat_id": 40275,
        "meta_element_set_no": 999,
        "meta_rev_at_epoch": 53591,
        "meta_bstar": 5.1063601e-05,
        "meta_mean_motion_dot": -2.7e-07,
        "meta_mean_motion_ddot": 0,
        "tle_line1": "1 40275U 14063A   25351.42320665 -.00000027  00000+0  51064-4 0  9995",
        "tle_line2": "2 40275 100.7424 134.9088 0005989 236.7844 123.2694 13.15522862535911"
      },
      "geometry": {
        "type": "Point",
        "coordinates": [
          -44.37620692132457,
          -1.3107785743736127
        ]
      }
    },
    {
      "type": "Feature",
      "properties": {
        "norad_id": 40298,
        "name": "ASNARO",
        "group": "resource",
        "lat": -25.678242537301532,
        "lon": -115.38265742918972,
        "alt_km": 513.3878031449676,
        "timestamp": "2025-12-18T08:58:43.048783+00:00",
        "meta_object_name": "ASNARO",
        "meta_object_id": "2014-070A",
        "meta_epoch": "2025-12-17T22:35:38.757984",
        "meta_mean_motion": 15.19601332,
        "meta_eccentricity": 0.00056497,
        "meta_inclination": 97.3652,
        "meta_ra_of_asc_node": 67.7608,
        "meta_arg_of_pericenter": 107.9549,
        "meta_mean_anomaly": 252.2302,
        "meta_ephemeris_type": 0,
        "meta_classification_type": "U",
        "meta_norad_cat_id": 40298,
        "meta_element_set_no": 999,
        "meta_rev_at_epoch": 61648,
        "meta_bstar": 0.00036642457,
        "meta_mean_motion_dot": 7.74e-05,
        "meta_mean_motion_ddot": 0,
        "tle_line1": "1 40298U 14070A   25351.94142081  .00007740  00000+0  36642-3 0  9991",
        "tle_line2": "2 40298  97.3652  67.7608 0005649 107.9549 252.2302 15.19601332616482"
      },
      "geometry": {
        "type": "Point",
        "coordinates": [
          -115.38265742918972,
          -25.678242537301532
        ]
      }
    },
    {
      "type": "Feature",
      "properties": {
        "norad_id": 40310,
        "name": "YAOGAN-24",
        "group": "resource",
        "lat": 19.48015620374203,
        "lon": 120.60126265298132,
        "alt_km": 643.5522083408969,
        "timestamp": "2025-12-18T08:58:43.048793+00:00",
        "meta_object_name": "YAOGAN-24",
        "meta_object_id": "2014-072A",
        "meta_epoch": "2025-12-17T23:07:43.941792",
        "meta_mean_motion": 14.76188157,
        "meta_eccentricity": 0.00149466,
        "meta_inclination": 98.1215,
        "meta_ra_of_asc_node": 123.0842,
        "meta_arg_of_pericenter": 122.2125,
        "meta_mean_anomaly": 238.0536,
        "meta_ephemeris_type": 0,
        "meta_classification_type": "U",
        "meta_norad_cat_id": 40310,
        "meta_element_set_no": 999,
        "meta_rev_at_epoch": 59698,
        "meta_bstar": 0.00010940793,
        "meta_mean_motion_dot": 7.05e-06,
        "meta_mean_motion_ddot": 0,
        "tle_line1": "1 40310U 14072A   25351.96370303  .00000705  00000+0  10941-3 0  9998",
        "tle_line2": "2 40310  98.1215 123.0842 0014946 122.2125 238.0536 14.76188157596987"
      },
      "geometry": {
        "type": "Point",
        "coordinates": [
          120.60126265298132,
          19.48015620374203
        ]
      }
    },
    {
      "type": "Feature",
      "properties": {
        "norad_id": 40336,
        "name": "CBERS 4",
        "group": "resource",
        "lat": 16.55606465588771,
        "lon": 47.701919475940485,
        "alt_km": 773.8769790227161,
        "timestamp": "2025-12-18T08:58:43.048803+00:00",
        "meta_object_name": "CBERS 4",
        "meta_object_id": "2014-079A",
        "meta_epoch": "2025-12-17T22:51:49.912992",
        "meta_mean_motion": 14.35518822,
        "meta_eccentricity": 0.00017582,
        "meta_inclination": 98.3308,
        "meta_ra_of_asc_node": 49.7915,
        "meta_arg_of_pericenter": 106.6526,
        "meta_mean_anomaly": 253.4853,
        "meta_ephemeris_type": 0,
        "meta_classification_type": "U",
        "meta_norad_cat_id": 40336,
        "meta_element_set_no": 999,
        "meta_rev_at_epoch": 57795,
        "meta_bstar": -9.387185e-06,
        "meta_mean_motion_dot": -6.9e-07,
        "meta_mean_motion_ddot": 0,
        "tle_line1": "1 40336U 14079A   25351.95266103 -.00000069  00000+0 -93872-5 0  9995",
        "tle_line2": "2 40336  98.3308  49.7915 0001758 106.6526 253.4853 14.35518822577953"
      },
      "geometry": {
        "type": "Point",
        "coordinates": [
          47.701919475940485,
          16.55606465588771
        ]
      }
    },
    {
      "type": "Feature",
      "properties": {
        "norad_id": 40362,
        "name": "YAOGAN-26",
        "group": "resource",
        "lat": -81.68972741562038,
        "lon": 50.93969719898388,
        "alt_km": 455.4637105584661,
        "timestamp": "2025-12-18T08:58:43.048813+00:00",
        "meta_object_name": "YAOGAN-26",
        "meta_object_id": "2014-088A",
        "meta_epoch": "2025-12-17T23:59:24.107712",
        "meta_mean_motion": 15.39482459,
        "meta_eccentricity": 0.00054531,
        "meta_inclination": 97.0634,
        "meta_ra_of_asc_node": 352.4867,
        "meta_arg_of_pericenter": 13.1871,
        "meta_mean_anomaly": 346.9517,
        "meta_ephemeris_type": 0,
        "meta_classification_type": "U",
        "meta_norad_cat_id": 40362,
        "meta_element_set_no": 999,
        "meta_rev_at_epoch": 60975,
        "meta_bstar": 0.00037118043,
        "meta_mean_motion_dot": 0.00014498,
        "meta_mean_motion_ddot": 0,
        "tle_line1": "1 40362U 14088A   25351.99958458  .00014498  00000+0  37118-3 0  9997",
        "tle_line2": "2 40362  97.0634 352.4867 0005453  13.1871 346.9517 15.39482459609751"
      },
      "geometry": {
        "type": "Point",
        "coordinates": [
          50.93969719898388,
          -81.68972741562038
        ]
      }
    }
  ]
}